[{"OBJECT_NAME":"STARLINK-3947","OBJECT_ID":"2022-052K","EPOCH":"2026-03-09T21:10:58.864800","MEAN_MOTION":15.08835543,"ECCENTRICITY":0.00013479,"INCLINATION":53.2166,"RA_OF_ASC_NODE":283.2667,"ARG_OF_PERICENTER":92.7035,"MEAN_ANOMALY":267.4112,"EPHEMERIS_TYPE":0,"CLASSIFICATION_TYPE":"U","NORAD_CAT_ID":52607,"ELEMENT_SET_NO":999,"REV_AT_EPOCH":21080,"BSTAR":5.0277452e-5,"MEAN_MOTION_DOT":5.12e-6,"MEAN_MOTION_DDOT":0},{"OBJECT_NAME":"YUNYAO-1 47","OBJECT_ID":"2025-059E","EPOCH":"2026-03-09T22:46:15.708288","MEAN_MOTION":15.10508558,"ECCENTRICITY":0.00172664,"INCLINATION":97.6066,"RA_OF_ASC_NODE":250.9227,"ARG_OF_PERICENTER":135.6694,"MEAN_ANOMALY":224.5922,"EPHEMERIS_TYPE":0,"CLASSIFICATION_TYPE":"U","NORAD_CAT_ID":63348,"ELEMENT_SET_NO":999,"REV_AT_EPOCH":5331,"BSTAR":0.00029014568,"MEAN_MOTION_DOT":4.732e-5,"MEAN_MOTION_DDOT":0}]
